{"type": "FeatureCollection", "features": [{"type": "Feature", "properties": {"norad_id": 66422, "name": "STARLINK-35617", "group": "last-30-days", "lat": 42.38392565361439, "lon": 135.25713991160703, "alt_km": 438.131024358413, "timestamp": "2025-12-11T05:00:25.073721+00:00", "meta": {"OBJECT_NAME": "STARLINK-35617", "OBJECT_ID": "2025-259A", "EPOCH": "2025-12-10T22:25:56.582688", "MEAN_MOTION": 15.40798807, "ECCENTRICITY": 0.00019488, "INCLINATION": 43.0015, "RA_OF_ASC_NODE": 58.5149, "ARG_OF_PERICENTER": 282.5962, "MEAN_ANOMALY": 77.4677, "EPHEMERIS_TYPE": 0, "CLASSIFICATION_TYPE": "U", "NORAD_CAT_ID": 66422, "ELEMENT_SET_NO": 999, "REV_AT_EPOCH": 588, "BSTAR": 0.0016502013, "MEAN_MOTION_DOT": 0.00069489, "MEAN_MOTION_DDOT": 0}, "tle": {"line1": "1 66422U 25259A   25344.93468267  .00069489  00000+0  16502-2 0  9997", "line2": "2 66422  43.0015  58.5149 0001948 282.5962  77.4677 15.40798807  5881"}}, "geometry": {"type": "Point", "coordinates": [135.25713991160703, 42.38392565361439]}}, {"type": "Feature", "properties": {"norad_id": 66423, "name": "STARLINK-35618", "group": "last-30-days", "lat": 42.86494150572341, "lon": 152.05219393575004, "alt_km": 437.6487286999918, "timestamp": "2025-12-11T05:00:25.073800+00:00", "meta": {"OBJECT_NAME": "STARLINK-35618", "OBJECT_ID": "2025-259B", "EPOCH": "2025-12-10T22:22:43.323168", "MEAN_MOTION": 15.40714658, "ECCENTRICITY": 9.432e-05, "INCLINATION": 43.0006, "RA_OF_ASC_NODE": 58.4984, "ARG_OF_PERICENTER": 292.4656, "MEAN_ANOMALY": 67.6101, "EPHEMERIS_TYPE": 0, "CLASSIFICATION_TYPE": "U", "NORAD_CAT_ID": 66423, "ELEMENT_SET_NO": 999, "REV_AT_EPOCH": 588, "BSTAR": 0.0021476176, "MEAN_MOTION_DOT": 0.00090522, "MEAN_MOTION_DDOT": 0}, "tle": {"line1": "1 66423U 25259B   25344.93244587  .00090522  00000+0  21476-2 0  9993", "line2": "2 66423  43.0006  58.4984 0000943 292.4656  67.6101 15.40714658  5887"}}, "geometry": {"type": "Point", "coordinates": [152.05219393575004, 42.86494150572341]}}, {"type": "Feature", "properties": {"norad_id": 66424, "name": "STARLINK-35588", "group": "last-30-days", "lat": 40.88877682558909, "lon": 168.54973890267533, "alt_km": 436.7775681923458, "timestamp": "2025-12-11T05:00:25.073817+00:00", "meta": {"OBJECT_NAME": "STARLINK-35588", "OBJECT_ID": "2025-259C", "EPOCH": "2025-12-10T22:19:30.312480", "MEAN_MOTION": 15.40718502, "ECCENTRICITY": 9.661e-05, "INCLINATION": 42.9971, "RA_OF_ASC_NODE": 58.4807, "ARG_OF_PERICENTER": 79.8411, "MEAN_ANOMALY": 280.2554, "EPHEMERIS_TYPE": 0, "CLASSIFICATION_TYPE": "U", "NORAD_CAT_ID": 66424, "ELEMENT_SET_NO": 999, "REV_AT_EPOCH": 588, "BSTAR": 0.0017092191, "MEAN_MOTION_DOT": 0.00071813, "MEAN_MOTION_DDOT": 0}, "tle": {"line1": "1 66424U 25259C   25344.93021195  .00071813  00000+0  17092-2 0  9993", "line2": "2 66424  42.9971  58.4807 0000966  79.8411 280.2554 15.40718502  5889"}}, "geometry": {"type": "Point", "coordinates": [168.54973890267533, 40.88877682558909]}}, {"type": "Feature", "properties": {"norad_id": 66425, "name": "STARLINK-35555", "group": "last-30-days", "lat": 36.74491564307345, "lon": -176.40529578378042, "alt_km": 437.8060367274593, "timestamp": "2025-12-11T05:00:25.073830+00:00", "meta": {"OBJECT_NAME": "STARLINK-35555", "OBJECT_ID": "2025-259D", "EPOCH": "2025-12-10T22:16:16.679712", "MEAN_MOTION": 15.40691984, "ECCENTRICITY": 9.029e-05, "INCLINATION": 42.9985, "RA_OF_ASC_NODE": 58.4609, "ARG_OF_PERICENTER": 54.9082, "MEAN_ANOMALY": 305.1859, "EPHEMERIS_TYPE": 0, "CLASSIFICATION_TYPE": "U", "NORAD_CAT_ID": 66425, "ELEMENT_SET_NO": 999, "REV_AT_EPOCH": 588, "BSTAR": 0.0017604731, "MEAN_MOTION_DOT": 0.00073931, "MEAN_MOTION_DDOT": 0}, "tle": {"line1": "1 66425U 25259D   25344.92797083  .00073931  00000+0  17605-2 0  9992", "line2": "2 66425  42.9985  58.4609 0000902  54.9082 305.1859 15.40691984  5882"}}, "geometry": {"type": "Point", "coordinates": [-176.40529578378042, 36.74491564307345]}}, {"type": "Feature", "properties": {"norad_id": 66426, "name": "STARLINK-35589", "group": "last-30-days", "lat": 30.89805540348557, "lon": -163.144594486372, "alt_km": 439.1540219435856, "timestamp": "2025-12-11T05:00:25.073842+00:00", "meta": {"OBJECT_NAME": "STARLINK-35589", "OBJECT_ID": "2025-259E", "EPOCH": "2025-12-10T22:13:02.675424", "MEAN_MOTION": 15.40713173, "ECCENTRICITY": 5.02e-05, "INCLINATION": 42.9984, "RA_OF_ASC_NODE": 58.4453, "ARG_OF_PERICENTER": 250.5262, "MEAN_ANOMALY": 109.554, "EPHEMERIS_TYPE": 0, "CLASSIFICATION_TYPE": "U", "NORAD_CAT_ID": 66426, "ELEMENT_SET_NO": 999, "REV_AT_EPOCH": 588, "BSTAR": 0.0016219032, "MEAN_MOTION_DOT": 0.00068084, "MEAN_MOTION_DDOT": 0}, "tle": {"line1": "1 66426U 25259E   25344.92572541  .00068084  00000+0  16219-2 0  9996", "line2": "2 66426  42.9984  58.4453 0000502 250.5262 109.5540 15.40713173  5887"}}, "geometry": {"type": "Point", "coordinates": [-163.144594486372, 30.89805540348557]}}, {"type": "Feature", "properties": {"norad_id": 66427, "name": "STARLINK-35611", "group": "last-30-days", "lat": 23.928597623831383, "lon": -151.65930902631305, "alt_km": 439.7795328836846, "timestamp": "2025-12-11T05:00:25.073853+00:00", "meta": {"OBJECT_NAME": "STARLINK-35611", "OBJECT_ID": "2025-259F", "EPOCH": "2025-12-10T22:09:50.750784", "MEAN_MOTION": 15.40678716, "ECCENTRICITY": 0.00016263, "INCLINATION": 42.9897, "RA_OF_ASC_NODE": 58.4322, "ARG_OF_PERICENTER": 74.87, "MEAN_ANOMALY": 285.2336, "EPHEMERIS_TYPE": 0, "CLASSIFICATION_TYPE": "U", "NORAD_CAT_ID": 66427, "ELEMENT_SET_NO": 999, "REV_AT_EPOCH": 588, "BSTAR": 0.0014243416, "MEAN_MOTION_DOT": 0.0005962, "MEAN_MOTION_DDOT": 0}, "tle": {"line1": "1 66427U 25259F   25344.92350406  .00059620  00000+0  14243-2 0  9992", "line2": "2 66427  42.9897  58.4322 0001626  74.8700 285.2336 15.40678716  5886"}}, "geometry": {"type": "Point", "coordinates": [-151.65930902631305, 23.928597623831383]}}, {"type": "Feature", "properties": {"norad_id": 66428, "name": "STARLINK-35610", "group": "last-30-days", "lat": 16.06628066521684, "lon": -141.2499358811741, "alt_km": 441.61924647253727, "timestamp": "2025-12-11T05:00:25.073865+00:00", "meta": {"OBJECT_NAME": "STARLINK-35610", "OBJECT_ID": "2025-259G", "EPOCH": "2025-12-10T22:06:35.350272", "MEAN_MOTION": 15.40725826, "ECCENTRICITY": 0.00010484, "INCLINATION": 42.9976, "RA_OF_ASC_NODE": 58.4108, "ARG_OF_PERICENTER": 271.5958, "MEAN_ANOMALY": 88.4779, "EPHEMERIS_TYPE": 0, "CLASSIFICATION_TYPE": "U", "NORAD_CAT_ID": 66428, "ELEMENT_SET_NO": 999, "REV_AT_EPOCH": 588, "BSTAR": 0.0018895795, "MEAN_MOTION_DOT": 0.00079524, "MEAN_MOTION_DDOT": 0}, "tle": {"line1": "1 66428U 25259G   25344.92124248  .00079524  00000+0  18896-2 0  9999", "line2": "2 66428  42.9976  58.4108 0001048 271.5958  88.4779 15.40725826  5885"}}, "geometry": {"type": "Point", "coordinates": [-141.2499358811741, 16.06628066521684]}}, {"type": "Feature", "properties": {"norad_id": 66429, "name": "STARLINK-35533", "group": "last-30-days", "lat": 7.824421921566364, "lon": -131.76008401099605, "alt_km": 442.8420377625689, "timestamp": "2025-12-11T05:00:25.073876+00:00", "meta": {"OBJECT_NAME": "STARLINK-35533", "OBJECT_ID": "2025-259H", "EPOCH": "2025-12-10T22:03:21.990528", "MEAN_MOTION": 15.40709535, "ECCENTRICITY": 3.812e-05, "INCLINATION": 42.9981, "RA_OF_ASC_NODE": 58.3901, "ARG_OF_PERICENTER": 325.4753, "MEAN_ANOMALY": 34.6079, "EPHEMERIS_TYPE": 0, "CLASSIFICATION_TYPE": "U", "NORAD_CAT_ID": 66429, "ELEMENT_SET_NO": 999, "REV_AT_EPOCH": 588, "BSTAR": 0.0015445479, "MEAN_MOTION_DOT": 0.00064786, "MEAN_MOTION_DDOT": 0}, "tle": {"line1": "1 66429U 25259H   25344.91900452  .00064786  00000+0  15445-2 0  9999", "line2": "2 66429  42.9981  58.3901 0000381 325.4753  34.6079 15.40709535  5888"}}, "geometry": {"type": "Point", "coordinates": [-131.76008401099605, 7.824421921566364]}}, {"type": "Feature", "properties": {"norad_id": 66430, "name": "STARLINK-35470", "group": "last-30-days", "lat": -0.6027770078915331, "lon": -122.66278491322554, "alt_km": 444.1254224028662, "timestamp": "2025-12-11T05:00:25.073888+00:00", "meta": {"OBJECT_NAME": "STARLINK-35470", "OBJECT_ID": "2025-259J", "EPOCH": "2025-12-10T22:00:03.000096", "MEAN_MOTION": 15.40764241, "ECCENTRICITY": 0.00014467, "INCLINATION": 43.0005, "RA_OF_ASC_NODE": 58.373, "ARG_OF_PERICENTER": 278.3164, "MEAN_ANOMALY": 81.4001, "EPHEMERIS_TYPE": 0, "CLASSIFICATION_TYPE": "U", "NORAD_CAT_ID": 66430, "ELEMENT_SET_NO": 999, "REV_AT_EPOCH": 598, "BSTAR": -0.0035505352, "MEAN_MOTION_DOT": -0.00146126, "MEAN_MOTION_DDOT": 0}, "tle": {"line1": "1 66430U 25259J   25344.91670139 -.00146126  00000+0 -35505-2 0  9997", "line2": "2 66430  43.0005  58.3730 0001446 278.3164  81.4001 15.40764241  5985"}}, "geometry": {"type": "Point", "coordinates": [-122.66278491322554, -0.6027770078915331]}}, {"type": "Feature", "properties": {"norad_id": 66431, "name": "STARLINK-35439", "group": "last-30-days", "lat": -9.056055428476476, "lon": -113.49303499220476, "alt_km": 444.8251961410615, "timestamp": "2025-12-11T05:00:25.073899+00:00", "meta": {"OBJECT_NAME": "STARLINK-35439", "OBJECT_ID": "2025-259K", "EPOCH": "2025-12-10T22:00:03.000096", "MEAN_MOTION": 15.40762016, "ECCENTRICITY": 0.00010827, "INCLINATION": 43.0005, "RA_OF_ASC_NODE": 58.3413, "ARG_OF_PERICENTER": 267.5335, "MEAN_ANOMALY": 104.6496, "EPHEMERIS_TYPE": 0, "CLASSIFICATION_TYPE": "U", "NORAD_CAT_ID": 66431, "ELEMENT_SET_NO": 999, "REV_AT_EPOCH": 598, "BSTAR": -0.0037819706, "MEAN_MOTION_DOT": -0.00155427, "MEAN_MOTION_DDOT": 0}, "tle": {"line1": "1 66431U 25259K   25344.91670139 -.00155427  00000+0 -37820-2 0  9994", "line2": "2 66431  43.0005  58.3413 0001082 267.5335 104.6496 15.40762016  5984"}}, "geometry": {"type": "Point", "coordinates": [-113.49303499220476, -9.056055428476476]}}]}